{"type": "FeatureCollection", "features": [ {"type": "Feature", "properties": {"norad_id": 36173, "name": "FENGYUN 1C DEB", "group": "fengyun-1c-debris", "lat": 4.976432412870973, "lon": -62.80864398919907, "alt_km": 909.2528234483989, "timestamp": "2025-12-06T09:34:17.201645+00:00", "meta": {"OBJECT_NAME": "FENGYUN 1C DEB", "OBJECT_ID": "1999-025DSW", "EPOCH": "2025-11-27T03:07:28.371072", "MEAN_MOTION": 14.25142788, "ECCENTRICITY": 0.01460397, "INCLINATION": 98.2105, "RA_OF_ASC_NODE": 289.2336, "ARG_OF_PERICENTER": 231.4906, "MEAN_ANOMALY": 127.3105, "EPHEMERIS_TYPE": 0, "CLASSIFICATION_TYPE": "U", "NORAD_CAT_ID": 36173, "ELEMENT_SET_NO": 999, "REV_AT_EPOCH": 58868, "BSTAR": 0.00039734703, "MEAN_MOTION_DOT": 1e-05, "MEAN_MOTION_DDOT": 0}, "tle": {"line1": "1 36173U 99025DSW 25331.13018948  .00001000  00000+0  39735-3 0  9993", "line2": "2 36173  98.2105 289.2336 0146039 231.4906 127.3105 14.25142788588684"}}, "geometry": {"type": "Point", "coordinates": [-62.80864398919907, 4.976432412870973]}}, {"type": "Feature", "properties": {"norad_id": 36180, "name": "FENGYUN 1C DEB", "group": "fengyun-1c-debris", "lat": 80.1624044769414, "lon": -14.807514266375136, "alt_km": 691.2887146015855, "timestamp": "2025-12-06T09:34:17.201655+00:00", "meta": {"OBJECT_NAME": "FENGYUN 1C DEB", "OBJECT_ID": "1999-025DTD", "EPOCH": "2025-12-05T21:21:22.276224", "MEAN_MOTION": 14.20680074, "ECCENTRICITY": 0.02106275, "INCLINATION": 98.4572, "RA_OF_ASC_NODE": 43.7979, "ARG_OF_PERICENTER": 50.8055, "MEAN_ANOMALY": 311.1621, "EPHEMERIS_TYPE": 0, "CLASSIFICATION_TYPE": "U", "NORAD_CAT_ID": 36180, "ELEMENT_SET_NO": 999, "REV_AT_EPOCH": 70486, "BSTAR": 0.00091841135, "MEAN_MOTION_DOT": 2.432e-05, "MEAN_MOTION_DDOT": 0}, "tle": {"line1": "1 36180U 99025DTD 25339.88984116  .00002432  00000+0  91841-3 0  9996", "line2": "2 36180  98.4572  43.7979 0210627  50.8055 311.1621 14.20680074704867"}}, "geometry": {"type": "Point", "coordinates": [-14.807514266375136, 80.1624044769414]}}, {"type": "Feature", "properties": {"norad_id": 36182, "name": "FENGYUN 1C DEB", "group": "fengyun-1c-debris", "lat": 2.0354493555788054, "lon": -92.7011598818715, "alt_km": 779.1829691886378, "timestamp": "2025-12-06T09:34:17.201666+00:00", "meta": {"OBJECT_NAME": "FENGYUN 1C DEB", "OBJECT_ID": "1999-025DTF", "EPOCH": "2025-12-05T13:28:32.597760", "MEAN_MOTION": 14.3462786, "ECCENTRICITY": 0.00213862, "INCLINATION": 99.0884, "RA_OF_ASC_NODE": 266.7445, "ARG_OF_PERICENTER": 95.7687, "MEAN_ANOMALY": 264.5936, "EPHEMERIS_TYPE": 0, "CLASSIFICATION_TYPE": "U", "NORAD_CAT_ID": 36182, "ELEMENT_SET_NO": 999, "REV_AT_EPOCH": 87854, "BSTAR": 0.0029877213, "MEAN_MOTION_DOT": 8.429e-05, "MEAN_MOTION_DDOT": 0}, "tle": {"line1": "1 36182U 99025DTF 25339.56148840  .00008429  00000+0  29877-2 0  9990", "line2": "2 36182  99.0884 266.7445 0021386  95.7687 264.5936 14.34627860878544"}}, "geometry": {"type": "Point", "coordinates": [-92.7011598818715, 2.0354493555788054]}}, {"type": "Feature", "properties": {"norad_id": 36186, "name": "FENGYUN 1C DEB", "group": "fengyun-1c-debris", "lat": -59.069790792642394, "lon": -142.06014252146764, "alt_km": 539.2167574283039, "timestamp": "2025-12-06T09:34:17.201676+00:00", "meta": {"OBJECT_NAME": "FENGYUN 1C DEB", "OBJECT_ID": "1999-025DTK", "EPOCH": "2025-12-05T21:10:38.845056", "MEAN_MOTION": 15.0870204, "ECCENTRICITY": 0.00152708, "INCLINATION": 98.9878, "RA_OF_ASC_NODE": 202.0199, "ARG_OF_PERICENTER": 348.1645, "MEAN_ANOMALY": 28.3868, "EPHEMERIS_TYPE": 0, "CLASSIFICATION_TYPE": "U", "NORAD_CAT_ID": 36186, "ELEMENT_SET_NO": 999, "REV_AT_EPOCH": 61467, "BSTAR": 0.015509564, "MEAN_MOTION_DOT": 0.00252284, "MEAN_MOTION_DDOT": 0}, "tle": {"line1": "1 36186U 99025DTK 25339.88239404  .00252284  00000+0  15510-1 0  9994", "line2": "2 36186  98.9878 202.0199 0015270 348.1645  28.3868 15.08702040614670"}}, "geometry": {"type": "Point", "coordinates": [-142.06014252146764, -59.069790792642394]}}, {"type": "Feature", "properties": {"norad_id": 36188, "name": "FENGYUN 1C DEB", "group": "fengyun-1c-debris", "lat": -16.92210910722747, "lon": -102.0443122422637, "alt_km": 717.1577477152514, "timestamp": "2025-12-06T09:34:17.201686+00:00", "meta": {"OBJECT_NAME": "FENGYUN 1C DEB", "OBJECT_ID": "1999-025DTM", "EPOCH": "2025-12-01T05:20:13.473024", "MEAN_MOTION": 14.6025584, "ECCENTRICITY": 0.0047349, "INCLINATION": 98.5854, "RA_OF_ASC_NODE": 75.2295, "ARG_OF_PERICENTER": 340.7793, "MEAN_ANOMALY": 19.1618, "EPHEMERIS_TYPE": 0, "CLASSIFICATION_TYPE": "U", "NORAD_CAT_ID": 36188, "ELEMENT_SET_NO": 999, "REV_AT_EPOCH": 87884, "BSTAR": 0.002895, "MEAN_MOTION_DOT": 0.00014165, "MEAN_MOTION_DDOT": 0}, "tle": {"line1": "1 36188U 99025DTM 25335.22237816  .00014165  00000+0  28950-2 0  9992", "line2": "2 36188  98.5854  75.2295 0047349 340.7793  19.1618 14.60255840878843"}}, "geometry": {"type": "Point", "coordinates": [-102.0443122422637, -16.92210910722747]}}, {"type": "Feature", "properties": {"norad_id": 36198, "name": "FENGYUN 1C DEB", "group": "fengyun-1c-debris", "lat": 39.14595277835388, "lon": 2.9328903336743277, "alt_km": 867.1470179760108, "timestamp": "2025-12-06T09:34:17.201697+00:00", "meta": {"OBJECT_NAME": "FENGYUN 1C DEB", "OBJECT_ID": "1999-025DTX", "EPOCH": "2025-12-05T07:47:48.370560", "MEAN_MOTION": 14.07843183, "ECCENTRICITY": 0.00971, "INCLINATION": 98.6236, "RA_OF_ASC_NODE": 9.0028, "ARG_OF_PERICENTER": 136.1712, "MEAN_ANOMALY": 224.7216, "EPHEMERIS_TYPE": 0, "CLASSIFICATION_TYPE": "U", "NORAD_CAT_ID": 36198, "ELEMENT_SET_NO": 999, "REV_AT_EPOCH": 63483, "BSTAR": 0.0026586612, "MEAN_MOTION_DOT": 4.668e-05, "MEAN_MOTION_DDOT": 0}, "tle": {"line1": "1 36198U 99025DTX 25339.32486540  .00004668  00000+0  26587-2 0  9999", "line2": "2 36198  98.6236   9.0028 0097100 136.1712 224.7216 14.07843183634837"}}, "geometry": {"type": "Point", "coordinates": [2.9328903336743277, 39.14595277835388]}}, {"type": "Feature", "properties": {"norad_id": 36199, "name": "FENGYUN 1C DEB", "group": "fengyun-1c-debris", "lat": 62.71418500325587, "lon": -161.73734345577864, "alt_km": 728.8178861485003, "timestamp": "2025-12-06T09:34:17.201707+00:00", "meta": {"OBJECT_NAME": "FENGYUN 1C DEB", "OBJECT_ID": "1999-025DTY", "EPOCH": "2025-12-03T20:34:05.424672", "MEAN_MOTION": 14.29630765, "ECCENTRICITY": 0.0093185, "INCLINATION": 98.2904, "RA_OF_ASC_NODE": 359.4233, "ARG_OF_PERICENTER": 93.4986, "MEAN_ANOMALY": 267.6861, "EPHEMERIS_TYPE": 0, "CLASSIFICATION_TYPE": "U", "NORAD_CAT_ID": 36199, "ELEMENT_SET_NO": 999, "REV_AT_EPOCH": 64853, "BSTAR": 0.00046153, "MEAN_MOTION_DOT": 1.199e-05, "MEAN_MOTION_DDOT": 0}, "tle": {"line1": "1 36199U 99025DTY 25337.85700723  .00001199  00000+0  46153-3 0  9996", "line2": "2 36199  98.2904 359.4233 0093185  93.4986 267.6861 14.29630765648531"}}, "geometry": {"type": "Point", "coordinates": [-161.73734345577864, 62.71418500325587]}}, {"type": "Feature", "properties": {"norad_id": 36200, "name": "FENGYUN 1C DEB", "group": "fengyun-1c-debris", "lat": -36.878963405089095, "lon": 60.67081552600455, "alt_km": 695.6265942921318, "timestamp": "2025-12-06T09:34:17.201717+00:00", "meta": {"OBJECT_NAME": "FENGYUN 1C DEB", "OBJECT_ID": "1999-025DTZ", "EPOCH": "2025-12-03T10:55:39.061344", "MEAN_MOTION": 14.58084214, "ECCENTRICITY": 0.00335627, "INCLINATION": 99.3879, "RA_OF_ASC_NODE": 50.2216, "ARG_OF_PERICENTER": 37.7962, "MEAN_ANOMALY": 322.5582, "EPHEMERIS_TYPE": 0, "CLASSIFICATION_TYPE": "U", "NORAD_CAT_ID": 36200, "ELEMENT_SET_NO": 999, "REV_AT_EPOCH": 73225, "BSTAR": 0.0051485049, "MEAN_MOTION_DOT": 0.00023905, "MEAN_MOTION_DDOT": 0}, "tle": {"line1": "1 36200U 99025DTZ 25337.45531321  .00023905  00000+0  51485-2 0  9993", "line2": "2 36200  99.3879  50.2216 0033562  37.7962 322.5582 14.58084214732250"}}, "geometry": {"type": "Point", "coordinates": [60.67081552600455, -36.878963405089095]}}, {"type": "Feature", "properties": {"norad_id": 36203, "name": "FENGYUN 1C DEB", "group": "fengyun-1c-debris", "lat": -22.500500818646955, "lon": 99.55250683884054, "alt_km": 592.28117335981, "timestamp": "2025-12-06T09:34:17.201727+00:00", "meta": {"OBJECT_NAME": "FENGYUN 1C DEB", "OBJECT_ID": "1999-025DUC", "EPOCH": "2025-12-02T02:18:32.511168", "MEAN_MOTION": 14.78101467, "ECCENTRICITY": 0.00828267, "INCLINATION": 99.0947, "RA_OF_ASC_NODE": 278.5034, "ARG_OF_PERICENTER": 181.911, "MEAN_ANOMALY": 178.1793, "EPHEMERIS_TYPE": 0, "CLASSIFICATION_TYPE": "U", "NORAD_CAT_ID": 36203, "ELEMENT_SET_NO": 999, "REV_AT_EPOCH": 63272, "BSTAR": 0.0013137928, "MEAN_MOTION_DOT": 0.00010006, "MEAN_MOTION_DDOT": 0}, "tle": {"line1": "1 36203U 99025DUC 25336.09620962  .00010006  00000+0  13138-2 0  9996", "line2": "2 36203  99.0947 278.5034 0082826 181.9110 178.1793 14.78101467632725"}}, "geometry": {"type": "Point", "coordinates": [99.55250683884054, -22.500500818646955]}}, {"type": "Feature", "properties": {"norad_id": 36204, "name": "FENGYUN 1C DEB", "group": "fengyun-1c-debris", "lat": -70.56156000675136, "lon": -130.63603676003302, "alt_km": 779.7298848248274, "timestamp": "2025-12-06T09:34:17.201737+00:00", "meta": {"OBJECT_NAME": "FENGYUN 1C DEB", "OBJECT_ID": "1999-025DUD", "EPOCH": "2025-12-04T12:52:24.876192", "MEAN_MOTION": 14.34488584, "ECCENTRICITY": 0.0020013, "INCLINATION": 99.2915, "RA_OF_ASC_NODE": 75.0011, "ARG_OF_PERICENTER": 185.0266, "MEAN_ANOMALY": 175.0719, "EPHEMERIS_TYPE": 0, "CLASSIFICATION_TYPE": "U", "NORAD_CAT_ID": 36204, "ELEMENT_SET_NO": 999, "REV_AT_EPOCH": 94310, "BSTAR": 0.0030031, "MEAN_MOTION_DOT": 8.445e-05, "MEAN_MOTION_DDOT": 0}, "tle": {"line1": "1 36204U 99025DUD 25338.53639903  .00008445  00000+0  30031-2 0  9998", "line2": "2 36204  99.2915  75.0011 0020013 185.0266 175.0719 14.34488584943106"}}, "geometry": {"type": "Point", "coordinates": [-130.63603676003302, -70.56156000675136]}}]}